NORAD_CAT_ID,OBJECT_NAME,OBJECT_TYPE,EPOCH,MEAN_MOTION,ECCENTRICITY,INCLINATION,RA_OF_ASC_NODE,ARG_OF_PERICENTER,MEAN_ANOMALY,BSTAR,MEAN_MOTION_DOT,MEAN_MOTION_DDOT,TLE_LINE0,TLE_LINE1,TLE_LINE2,SEMIMAJOR_AXIS,PERIOD,APOGEE,PERIGEE,DECAYED
52882.0,STARLINK-4181,PAYLOAD,2022-12-27 19:59:09,15.08849263,0.0002403,53.2169,216.8345,56.0497,304.0723,0.00020257,2.938e-05,0.0,0 STARLINK-4181,1 52882U 22062BE  22361.83275066  .00002938  00000-0  20257-3 0  9999,2 52882  53.2169 216.8345 0002403  56.0497 304.0723 15.08849263 29761,6917.852,95.437,541.379,538.055,0.0
52882.0,STARLINK-4181,PAYLOAD,2022-12-28 15:03:47,15.08841736,0.0002381,53.2167,213.2664,57.1842,302.9379,0.00011215,1.497e-05,0.0,0 STARLINK-4181,1 52882U 22062BE  22362.62763248  .00001497  00000-0  11215-3 0  9994,2 52882  53.2167 213.2664 0002381  57.1842 302.9379 15.08841736 30375,6917.875,95.437,541.387,538.0930000000002,0.0
52882.0,STARLINK-4181,PAYLOAD,2022-12-28 16:39:10,15.08836141,0.0002218999999999,53.2169,212.9691,51.7991,308.3201,2.6643e-05,1.36e-06,0.0,0 STARLINK-4181,1 52882U 22062BE  22362.69387477  .00000136  00000-0  26643-4 0  9998,2 52882  53.2169 212.9691 0002219  51.7991 308.3201 15.08836141 29891,6917.892,95.438,541.2919999999998,538.222,0.0
52882.0,STARLINK-4181,PAYLOAD,2022-12-29 00:36:07,15.088251199999998,0.0002396,53.2165,211.4824,57.1013,303.0209,-0.0001543,-2.742e-05,0.0,0 STARLINK-4181,1 52882U 22062BE  22363.02508207 -.00002742  00000-0 -15430-3 0  9990,2 52882  53.2165 211.4824 0002396  57.1013 303.0209 15.08825120 30437,6917.926,95.438,541.448,538.133,0.0
52882.0,STARLINK-4181,PAYLOAD,2022-12-29 08:33:03,15.08828608,0.0002295999999999,53.2174,209.9956,56.5743,303.5469,-1.2901e-05,-4.94e-06,0.0,0 STARLINK-4181,1 52882U 22062BE  22363.35628850 -.00000494  00000-0 -12901-4 0  9996,2 52882  53.2174 209.9956 0002296  56.5743 303.5469 15.08828608 29993,6917.915,95.438,541.369,538.192,0.0
52882.0,STARLINK-4181,PAYLOAD,2022-12-30 06:48:26,15.08837887,0.0001848,53.2176,205.8324,76.2083,283.9115,-4.2404e-05,-9.63e-06,0.0,0 STARLINK-4181,1 52882U 22062BE  22364.28364566 -.00000963  00000-0 -42404-4 0  9992,2 52882  53.2176 205.8324 0001848  76.2083 283.9115 15.08837887 30627,6917.887,95.438,541.03,538.4730000000002,0.0
52882.0,STARLINK-4181,PAYLOAD,2022-12-31 13:00:47,15.08842331,0.0002307,53.2167,200.1823,58.0875,302.0341,0.00029506,4.411e-05,0.0,0 STARLINK-4181,1 52882U 22062BE  22365.54221080  .00004411  00000-0  29506-3 0  9992,2 52882  53.2167 200.1823 0002307  58.0875 302.0341 15.08842331 30812,6917.873000000001,95.437,541.3340000000002,538.1419999999998,0.0
52882.0,STARLINK-4181,PAYLOAD,2022-12-31 19:22:19,15.0884688,0.0002323999999999,53.2167,198.993,58.4595,301.6624,0.00032613,4.907e-05,0.0,0 STARLINK-4181,1 52882U 22062BE  22365.80716896  .00004907  00000-0  32613-3 0  9998,2 52882  53.2167 198.9930 0002324  58.4595 301.6624 15.08846880 30369,6917.859,95.437,541.332,538.117,0.0
52882.0,STARLINK-4181,PAYLOAD,2023-01-01 12:51:33,15.08849116,0.0002362,53.2164,195.722,59.1963,300.9261,0.00022198,3.247e-05,0.0,0 STARLINK-4181,1 52882U 22062BE  23001.53580640  .00003247  00000-0  22198-3 0  9995,2 52882  53.2164 195.7220 0002362  59.1963 300.9261 15.08849116 30478,6917.853,95.437,541.352,538.0840000000002,0.0
52882.0,STARLINK-4181,PAYLOAD,2023-01-01 19:13:06,15.0884217,0.0002396,53.2163,194.5329,59.6372,300.4857,7.3564e-05,8.83e-06,0.0,0 STARLINK-4181,1 52882U 22062BE  23001.80076921  .00000883  00000-0  73564-4 0  9994,2 52882  53.2163 194.5329 0002396  59.6372 300.4857 15.08842170 30514,6917.874,95.437,541.396,538.081,0.0
52882.0,STARLINK-4181,PAYLOAD,2023-01-01 22:23:52,15.0884209,0.0002363,53.2167,193.938,60.31100000000001,299.8117,8.594e-05,1.0800000000000003e-05,0.0,0 STARLINK-4181,1 52882U 22062BE  23001.93324997  .00001080  00000-0  85940-4 0  9998,2 52882  53.2167 193.9380 0002363  60.3110 299.8117 15.08842090 31029,6917.874,95.437,541.374,538.104,0.0
52882.0,STARLINK-4181,PAYLOAD,2023-01-02 12:42:20,15.08848055,0.0002367,53.2166,191.2618,61.2359,298.8871,0.00010019,1.307e-05,0.0,0 STARLINK-4181,1 52882U 22062BE  23002.52940504  .00001307  00000-0  10019-3 0  9998,2 52882  53.2166 191.2618 0002367  61.2359 298.8871 15.08848055 30620,6917.856,95.437,541.3580000000002,538.0830000000002,0.0
52882.0,STARLINK-4181,PAYLOAD,2023-01-02 19:03:53,15.08848425,0.0002379,53.2166,190.0724,61.295,298.8281,9.8377e-05,1.278e-05,0.0,0 STARLINK-4181,1 52882U 22062BE  23002.79436354  .00001278  00000-0  98377-4 0  9991,2 52882  53.2166 190.0724 0002379  61.2950 298.8281 15.08848425 30665,6917.855,95.437,541.365,538.0740000000002,0.0
52882.0,STARLINK-4181,PAYLOAD,2023-01-02 22:14:39,15.08849609,0.0002355,53.2175,189.4778,61.6625,298.4604,7.06e-05,8.36e-06,0.0,0 STARLINK-4181,1 52882U 22062BE  23002.92684118  .00000836  00000-0  70600-4 0  9997,2 52882  53.2175 189.4778 0002355  61.6625 298.4604 15.08849609 31170,6917.851,95.437,541.345,538.087,0.0
52882.0,STARLINK-4181,PAYLOAD,2023-01-03 12:33:08,15.08834306,0.0002334999999999,53.2179,186.802,61.54,298.5828,4.5282e-05,4.32e-06,0.0,0 STARLINK-4181,1 52882U 22062BE  23003.52301212  .00000432  00000-0  45282-4 0  9995,2 52882  53.2179 186.8020 0002335  61.5400 298.5828 15.08834306 31260,6917.898,95.438,541.378,538.1469999999998,0.0
52882.0,STARLINK-4181,PAYLOAD,2023-01-04 12:23:54,15.08844677,0.0002334,53.2168,182.3404,60.3744,299.7481,6.1655e-05,6.93e-06,0.0,0 STARLINK-4181,1 52882U 22062BE  23004.51660630  .00000693  00000-0  61655-4 0  9998,2 52882  53.2168 182.3404 0002334  60.3744 299.7481 15.08844677 31419,6917.866,95.437,541.346,538.116,0.0
52882.0,STARLINK-4181,PAYLOAD,2023-01-04 18:45:27,15.08847284,0.0002360999999999,53.2169,181.1511,61.0702,299.0527,8.1253e-05,1.005e-05,0.0,0 STARLINK-4181,1 52882U 22062BE  23004.78156339  .00001005  00000-0  81253-4 0  9997,2 52882  53.2169 181.1511 0002361  61.0702 299.0527 15.08847284 30968,6917.858,95.437,541.356,538.09,0.0
52882.0,STARLINK-4181,PAYLOAD,2023-01-05 12:14:41,15.08850783,0.0002295,53.2179,177.8806,60.3359,299.7861,0.00020643,3e-05,0.0,0 STARLINK-4181,1 52882U 22062BE  23005.51019696  .00003000  00000-0  20643-3 0  9995,2 52882  53.2179 177.8806 0002295  60.3359 299.7861 15.08850783 31073,6917.847,95.437,541.3,538.125,0.0
52882.0,STARLINK-4181,PAYLOAD,2023-01-05 18:36:13,15.08852642,0.0002544,53.2169,176.6889,57.9053,302.2186,0.00017522,2.502e-05,0.0,0 STARLINK-4181,1 52882U 22062BE  23005.77515676  .00002502  00000-0  17522-3 0  9990,2 52882  53.2169 176.6889 0002544  57.9053 302.2186 15.08852642 31111,6917.842,95.437,541.467,537.947,0.0
52882.0,STARLINK-4181,PAYLOAD,2023-01-06 05:43:55,15.08842908,0.0002256,53.217,174.6103,59.3889,300.7325,3.2742e-05,2.33e-06,0.0,0 STARLINK-4181,1 52882U 22062BE  23006.23884069  .00000233  00000-0  32742-4 0  9998,2 52882  53.2170 174.6103 0002256  59.3889 300.7325 15.08842908 31676,6917.871999999999,95.437,541.297,538.1759999999998,0.0
52882.0,STARLINK-4181,PAYLOAD,2023-01-06 20:02:24,15.08840629,0.0002284,53.2164,171.9332,59.6491,300.4727,-3.7008e-05,-8.77e-06,0.0,0 STARLINK-4181,1 52882U 22062BE  23006.83500171 -.00000877  00000-0 -37008-4 0  9999,2 52882  53.2164 171.9332 0002284  59.6491 300.4727 15.08840629 31273,6917.8780000000015,95.438,541.3240000000002,538.163,0.0
52882.0,STARLINK-4181,PAYLOAD,2023-01-07 05:34:42,15.0884689,0.0002241,53.2168,170.1495,59.5991,300.5222,4.0558e-05,3.57e-06,0.0,0 STARLINK-4181,1 52882U 22062BE  23007.23243813  .00000357  00000-0  40558-4 0  9996,2 52882  53.2168 170.1495 0002241  59.5991 300.5222 15.08846890 31339,6917.859,95.437,541.275,538.174,0.0
52882.0,STARLINK-4181,PAYLOAD,2023-01-07 10:20:52,15.08846113,0.0002215,53.2169,169.2572,60.0078,300.1134,2.7632e-05,1.52e-06,0.0,0 STARLINK-4181,1 52882U 22062BE  23007.43115797  .00000152  00000-0  27632-4 0  9998,2 52882  53.2169 169.2572 0002215  60.0078 300.1134 15.08846113 31852,6917.861999999999,95.437,541.259,538.194,0.0
52882.0,STARLINK-4181,PAYLOAD,2023-01-07 19:53:11,15.08837827,0.0002132,53.2165,167.4721,62.7299,297.391,-3.9261e-05,-9.13e-06,0.0,0 STARLINK-4181,1 52882U 22062BE  23007.82860285 -.00000913  00000-0 -39261-4 0  9998,2 52882  53.2165 167.4721 0002132  62.7299 297.3910 15.08837827 31914,6917.887,95.438,541.227,538.2769999999998,0.0
52882.0,STARLINK-4181,PAYLOAD,2023-01-08 10:11:39,15.08842426,0.0002116,53.217,164.7969,57.48,302.6397,0.00023799,3.502e-05,0.0,0 STARLINK-4181,1 52882U 22062BE  23008.42476232  .00003502  00000-0  23799-3 0  9993,2 52882  53.2170 164.7969 0002116  57.4800 302.6397 15.08842426 31511,6917.873000000001,95.437,541.202,538.274,0.0
52882.0,STARLINK-4181,PAYLOAD,2023-01-08 19:43:58,15.08846745,0.0002108,53.2172,163.0126,58.1307,301.9890000000001,0.00025979,3.85e-05,0.0,0 STARLINK-4181,1 52882U 22062BE  23008.82220121  .00003850  00000-0  25979-3 0  9999,2 52882  53.2172 163.0126 0002108  58.1307 301.9890 15.08846745 31575,6917.86,95.437,541.183,538.266,0.0
52882.0,STARLINK-4181,PAYLOAD,2023-01-09 03:40:53,15.08845465,0.0002119,53.2171,161.5257,57.6834,302.4363,0.00021348,3.111e-05,0.0,0 STARLINK-4181,1 52882U 22062BE  23009.15340164  .00003111  00000-0  21348-3 0  9992,2 52882  53.2171 161.5257 0002119  57.6834 302.4363 15.08845465 32113,6917.864000000001,95.437,541.195,538.263,0.0
52882.0,STARLINK-4181,PAYLOAD,2023-01-09 13:13:12,15.08843944,0.0001668,53.2178,159.7417,55.2427,304.8722,0.00014834,2.074e-05,0.0,0 STARLINK-4181,1 52882U 22062BE  23009.55084000  .00002074  00000-0  14834-3 0  9999,2 52882  53.2178 159.7417 0001668  55.2427 304.8722 15.08843944 31683,6917.868,95.437,540.887,538.5790000000002,0.0
52882.0,STARLINK-4181,PAYLOAD,2023-01-09 16:23:58,15.08841991,0.000197,53.2176,159.14700000000005,54.5082,305.6094,0.00011305,1.512e-05,0.0,0 STARLINK-4181,1 52882U 22062BE  23009.68332172  .00001512  00000-0  11305-3 0  9995,2 52882  53.2176 159.1470 0001970  54.5082 305.6094 15.08841991 31703,6917.874,95.437,541.102,538.376,0.0
